[{"OBJECT_NAME":"STARLINK-4574","OBJECT_ID":"2022-107AK","EPOCH":"2026-03-09T17:04:32.963232","MEAN_MOTION":15.08842757,"ECCENTRICITY":0.00013314,"INCLINATION":53.2165,"RA_OF_ASC_NODE":254.253,"ARG_OF_PERICENTER":83.4785,"MEAN_ANOMALY":276.6359,"EPHEMERIS_TYPE":0,"CLASSIFICATION_TYPE":"U","NORAD_CAT_ID":53733,"ELEMENT_SET_NO":999,"REV_AT_EPOCH":19458,"BSTAR":4.82419e-5,"MEAN_MOTION_DOT":4.8e-6,"MEAN_MOTION_DDOT":0},{"OBJECT_NAME":"OBJECT BE","OBJECT_ID":"2018-099BE","EPOCH":"2026-03-09T15:10:24.322944","MEAN_MOTION":15.09972337,"ECCENTRICITY":0.0006427,"INCLINATION":97.4031,"RA_OF_ASC_NODE":111.7891,"ARG_OF_PERICENTER":340.4925,"MEAN_ANOMALY":19.6058,"EPHEMERIS_TYPE":0,"CLASSIFICATION_TYPE":"U","NORAD_CAT_ID":43810,"ELEMENT_SET_NO":999,"REV_AT_EPOCH":39698,"BSTAR":0.00027209,"MEAN_MOTION_DOT":4.358e-5,"MEAN_MOTION_DDOT":0}]
